{
  "type": "FeatureCollection",
  "features": [
    {
      "type": "Feature",
      "properties": {
        "norad_id": 32419,
        "name": "FENGYUN 1C DEB",
        "group": "fengyun-1c-debris",
        "lat": 1.1321366978412863,
        "lon": 113.28056805133112,
        "alt_km": 1066.2776780936301,
        "timestamp": "2025-12-25T07:00:34.335016+00:00",
        "meta_object_name": "FENGYUN 1C DEB",
        "meta_object_id": "1999-025DAF",
        "meta_epoch": "2025-12-11T15:09:56.013984",
        "meta_mean_motion": 14.09908253,
        "meta_eccentricity": 0.02839501,
        "meta_inclination": 97.9459,
        "meta_ra_of_asc_node": 281.0334,
        "meta_arg_of_pericenter": 32.1797,
        "meta_mean_anomaly": 329.6358,
        "meta_ephemeris_type": 0,
        "meta_classification_type": "U",
        "meta_norad_cat_id": 32419,
        "meta_element_set_no": 999,
        "meta_rev_at_epoch": 63555,
        "meta_bstar": 0.0013854285,
        "meta_mean_motion_dot": 3.513e-05,
        "meta_mean_motion_ddot": 0,
        "tle_line1": "1 32419U 99025DAF 25345.63189831  .00003513  00000+0  13854-2 0  9996",
        "tle_line2": "2 32419  97.9459 281.0334 0283950  32.1797 329.6358 14.09908253635552"
      },
      "geometry": {
        "type": "Point",
        "coordinates": [
          113.28056805133112,
          1.1321366978412863
        ]
      }
    },
    {
      "type": "Feature",
      "properties": {
        "norad_id": 32422,
        "name": "FENGYUN 1C DEB",
        "group": "fengyun-1c-debris",
        "lat": 21.428616698536,
        "lon": -47.90215176151006,
        "alt_km": 926.6348875448493,
        "timestamp": "2025-12-25T07:00:34.335027+00:00",
        "meta_object_name": "FENGYUN 1C DEB",
        "meta_object_id": "1999-025DAJ",
        "meta_epoch": "2025-12-18T14:28:39.254304",
        "meta_mean_motion": 13.98014994,
        "meta_eccentricity": 0.02982939,
        "meta_inclination": 97.8414,
        "meta_ra_of_asc_node": 123.2691,
        "meta_arg_of_pericenter": 275.9311,
        "meta_mean_anomaly": 80.7936,
        "meta_ephemeris_type": 0,
        "meta_classification_type": "U",
        "meta_norad_cat_id": 32422,
        "meta_element_set_no": 999,
        "meta_rev_at_epoch": 63215,
        "meta_bstar": 0.00020595213,
        "meta_mean_motion_dot": 3.88e-06,
        "meta_mean_motion_ddot": 0,
        "tle_line1": "1 32422U 99025DAJ 25352.60323211  .00000388  00000+0  20595-3 0  9995",
        "tle_line2": "2 32422  97.8414 123.2691 0298293 275.9311  80.7936 13.98014994632151"
      },
      "geometry": {
        "type": "Point",
        "coordinates": [
          -47.90215176151006,
          21.428616698536
        ]
      }
    },
    {
      "type": "Feature",
      "properties": {
        "norad_id": 32425,
        "name": "FENGYUN 1C DEB",
        "group": "fengyun-1c-debris",
        "lat": -45.1946375485911,
        "lon": -42.24029526245501,
        "alt_km": 706.6510916091793,
        "timestamp": "2025-12-25T07:00:34.335037+00:00",
        "meta_object_name": "FENGYUN 1C DEB",
        "meta_object_id": "1999-025DAM",
        "meta_epoch": "2025-12-12T16:13:12.115488",
        "meta_mean_motion": 14.16741504,
        "meta_eccentricity": 0.02316015,
        "meta_inclination": 96.7012,
        "meta_ra_of_asc_node": 135.0318,
        "meta_arg_of_pericenter": 299.6477,
        "meta_mean_anomaly": 58.1818,
        "meta_ephemeris_type": 0,
        "meta_classification_type": "U",
        "meta_norad_cat_id": 32425,
        "meta_element_set_no": 999,
        "meta_rev_at_epoch": 69534,
        "meta_bstar": 0.00075748036,
        "meta_mean_motion_dot": 1.938e-05,
        "meta_mean_motion_ddot": 0,
        "tle_line1": "1 32425U 99025DAM 25346.67583467  .00001938  00000+0  75748-3 0  9991",
        "tle_line2": "2 32425  96.7012 135.0318 0231601 299.6477  58.1818 14.16741504695342"
      },
      "geometry": {
        "type": "Point",
        "coordinates": [
          -42.24029526245501,
          -45.1946375485911
        ]
      }
    },
    {
      "type": "Feature",
      "properties": {
        "norad_id": 32430,
        "name": "FENGYUN 1C DEB",
        "group": "fengyun-1c-debris",
        "lat": 49.89115610079989,
        "lon": 12.389899832155574,
        "alt_km": 1265.8874637551971,
        "timestamp": "2025-12-25T07:00:34.335048+00:00",
        "meta_object_name": "FENGYUN 1C DEB",
        "meta_object_id": "1999-025DAS",
        "meta_epoch": "2025-12-23T07:25:42.823488",
        "meta_mean_motion": 13.70184988,
        "meta_eccentricity": 0.03703317,
        "meta_inclination": 98.6958,
        "meta_ra_of_asc_node": 21.0606,
        "meta_arg_of_pericenter": 241.96,
        "meta_mean_anomaly": 114.3635,
        "meta_ephemeris_type": 0,
        "meta_classification_type": "U",
        "meta_norad_cat_id": 32430,
        "meta_element_set_no": 999,
        "meta_rev_at_epoch": 91348,
        "meta_bstar": 0.002006586,
        "meta_mean_motion_dot": 2.83e-05,
        "meta_mean_motion_ddot": 0,
        "tle_line1": "1 32430U 99025DAS 25357.30952342  .00002830  00000+0  20066-2 0  9995",
        "tle_line2": "2 32430  98.6958  21.0606 0370331 241.9600 114.3635 13.70184988913480"
      },
      "geometry": {
        "type": "Point",
        "coordinates": [
          12.389899832155574,
          49.89115610079989
        ]
      }
    },
    {
      "type": "Feature",
      "properties": {
        "norad_id": 32432,
        "name": "FENGYUN 1C DEB",
        "group": "fengyun-1c-debris",
        "lat": 7.911194277163201,
        "lon": 34.009192409581864,
        "alt_km": 740.9055497610634,
        "timestamp": "2025-12-25T07:00:34.335064+00:00",
        "meta_object_name": "FENGYUN 1C DEB",
        "meta_object_id": "1999-025DAU",
        "meta_epoch": "2025-12-23T20:15:23.310720",
        "meta_mean_motion": 14.52617697,
        "meta_eccentricity": 0.0172618,
        "meta_inclination": 98.1696,
        "meta_ra_of_asc_node": 33.7423,
        "meta_arg_of_pericenter": 271.2687,
        "meta_mean_anomaly": 86.874,
        "meta_ephemeris_type": 0,
        "meta_classification_type": "U",
        "meta_norad_cat_id": 32432,
        "meta_element_set_no": 999,
        "meta_rev_at_epoch": 70856,
        "meta_bstar": 0.0014396,
        "meta_mean_motion_dot": 7.12e-05,
        "meta_mean_motion_ddot": 0,
        "tle_line1": "1 32432U 99025DAU 25357.84401980  .00007120  00000+0  14396-2 0  9999",
        "tle_line2": "2 32432  98.1696  33.7423 0172618 271.2687  86.8740 14.52617697708562"
      },
      "geometry": {
        "type": "Point",
        "coordinates": [
          34.009192409581864,
          7.911194277163201
        ]
      }
    },
    {
      "type": "Feature",
      "properties": {
        "norad_id": 32440,
        "name": "FENGYUN 1C DEB",
        "group": "fengyun-1c-debris",
        "lat": 17.62201505475245,
        "lon": 36.70178660044927,
        "alt_km": 1080.6846346240445,
        "timestamp": "2025-12-25T07:00:34.335074+00:00",
        "meta_object_name": "FENGYUN 1C DEB",
        "meta_object_id": "1999-025DBC",
        "meta_epoch": "2025-12-24T19:39:57.716928",
        "meta_mean_motion": 13.61347688,
        "meta_eccentricity": 0.032345,
        "meta_inclination": 99.1528,
        "meta_ra_of_asc_node": 213.3227,
        "meta_arg_of_pericenter": 59.5036,
        "meta_mean_anomaly": 303.7625,
        "meta_ephemeris_type": 0,
        "meta_classification_type": "U",
        "meta_norad_cat_id": 32440,
        "meta_element_set_no": 999,
        "meta_rev_at_epoch": 60450,
        "meta_bstar": 0.0035353506,
        "meta_mean_motion_dot": 3.782e-05,
        "meta_mean_motion_ddot": 0,
        "tle_line1": "1 32440U 99025DBC 25358.81941802  .00003782  00000+0  35354-2 0  9995",
        "tle_line2": "2 32440  99.1528 213.3227 0323450  59.5036 303.7625 13.61347688604502"
      },
      "geometry": {
        "type": "Point",
        "coordinates": [
          36.70178660044927,
          17.62201505475245
        ]
      }
    },
    {
      "type": "Feature",
      "properties": {
        "norad_id": 32447,
        "name": "FENGYUN 1C DEB",
        "group": "fengyun-1c-debris",
        "lat": 8.469976807507624,
        "lon": -163.61753200884544,
        "alt_km": 965.4635924325066,
        "timestamp": "2025-12-25T07:00:34.335085+00:00",
        "meta_object_name": "FENGYUN 1C DEB",
        "meta_object_id": "1999-025DBK",
        "meta_epoch": "2025-12-09T20:22:18.261408",
        "meta_mean_motion": 13.96013309,
        "meta_eccentricity": 0.00800272,
        "meta_inclination": 98.9313,
        "meta_ra_of_asc_node": 0.0649,
        "meta_arg_of_pericenter": 49.1812,
        "meta_mean_anomaly": 311.6255,
        "meta_ephemeris_type": 0,
        "meta_classification_type": "U",
        "meta_norad_cat_id": 32447,
        "meta_element_set_no": 999,
        "meta_rev_at_epoch": 67838,
        "meta_bstar": 0.00036340481,
        "meta_mean_motion_dot": 4.69e-06,
        "meta_mean_motion_ddot": 0,
        "tle_line1": "1 32447U 99025DBK 25343.84882247  .00000469  00000+0  36340-3 0  9992",
        "tle_line2": "2 32447  98.9313   0.0649 0080027  49.1812 311.6255 13.96013309678386"
      },
      "geometry": {
        "type": "Point",
        "coordinates": [
          -163.61753200884544,
          8.469976807507624
        ]
      }
    }
  ]
}